STARLINK-3799           
1 52382U 22045BD  25171.55212902 -.00000174  00000+0  71652-5 0  9993
2 52382  53.2179 285.9134 0000961  89.7165 270.3937 15.08833892176353
STARLINK-3811           
1 52383U 22045BE  25171.57512884 -.00000758  00000+0 -29573-4 0  9991
2 52383  53.2186 275.8278 0001159  90.0291 270.0833 15.08836121176499
STARLINK-3870           
1 52451U 22049A   25171.99740009  .00000308  00000+0  37459-4 0  9990
2 52451  53.2154 163.9000 0001291  84.4499 275.6640 15.08840790172764
STARLINK-3909           
1 52452U 22049B   25171.67722883  .00000665  00000+0  59893-4 0  9998
2 52452  53.2159 165.2135 0001379  89.0045 271.1105 15.08835408172553
STARLINK-3872           
1 52453U 22049C   25172.38748255  .00000223  00000+0  32098-4 0  9997
2 52453  53.2160 162.1507 0001267  87.4194 272.6943 15.08837720172823
STARLINK-3888           
1 52454U 22049D   25172.39118041 -.00000433  00000+0 -91097-5 0  9993
2 52454  53.2158 162.1331 0001427  90.1312 269.9844 15.08830835172826
STARLINK-3890           
1 52455U 22049E   25172.38476436 -.00000561  00000+0 -17142-4 0  9998
2 52455  53.2165 162.1629 0001402  74.6501 285.4646 15.08845340172825
STARLINK-3896           
1 52456U 22049F   25171.71867887 -.00000361  00000+0 -45944-5 0  9999
2 52456  53.2155 165.1525 0001138  72.6186 287.4931 15.08846719172567
STARLINK-3899           
1 52457U 22049G   25171.71404094  .00000192  00000+0  30132-4 0  9999
2 52457  53.2159 165.1638 0001392  79.0999 281.0150 15.08840874172561
STARLINK-3898           
1 52458U 22049H   25172.24124469  .00000510  00000+0  50161-4 0  9992
2 52458  53.2160 162.8060 0001256  84.7984 275.3151 15.08836876172804
STARLINK-3856           
1 52459U 22049J   25172.22648226 -.00000471  00000+0 -11528-4 0  9995
2 52459  53.2168 152.8724 0001212  92.6966 267.4165 15.08833880172932
STARLINK-3900           
1 52461U 22049L   25172.22372607 -.00000192  00000+0  60349-5 0  9990
2 52461  53.2166 142.8818 0001281  78.9813 281.1323 15.08834803173071
STARLINK-3903           
1 52462U 22049M   25171.69016357 -.00000629  00000+0 -21451-4 0  9994
2 52462  53.2165 155.2905 0001355  71.6549 288.4591 15.08835826172694
STARLINK-3885           
1 52463U 22049N   25171.62388381 -.00000756  00000+0 -29394-4 0  9992
2 52463  53.2172 145.5762 0001378  64.8665 295.2470 15.08839304172826
STARLINK-3904           
1 52464U 22049P   25171.69288322 -.00000133  00000+0  97048-5 0  9994
2 52464  53.2157 155.2696 0001268  82.4705 277.6431 15.08840954172692
STARLINK-3863           
1 52465U 22049Q   25172.21636481 -.00000408  00000+0 -75377-5 0  9994
2 52465  53.2176 142.9218 0001655 108.6535 251.4637 15.08836442173077
STARLINK-3873           
1 52467U 22049S   25171.68551736 -.00001496  00000+0 -75939-4 0  9996
2 52467  53.2142 155.3046 0001309  77.0691 283.0447 15.08838294172691
STARLINK-3864           
1 52468U 22049T   25171.67081024 -.00001005  00000+0 -45054-4 0  9995
2 52468  53.2160 155.3699 0001294  81.4001 278.7138 15.08836895172696
STARLINK-3828           
1 52469U 22049U   25171.67817107  .00001108  00000+0  87694-4 0  9993
2 52469  53.2164 155.3446 0001456  85.9233 274.1925 15.08836585172697
STARLINK-3859           
1 52470U 22049V   25171.66344922  .00000814  00000+0  69220-4 0  9992
2 52470  53.2168 155.4023 0001266  85.3578 274.7558 15.08834176172692
STARLINK-3862           
1 52471U 22049W   25171.67544295  .00000008  00000+0  18573-4 0  9999
2 52471  53.2159 155.3585 0001256  51.0349 309.0755 15.08835664172694
STARLINK-3881           
1 52472U 22049X   25172.32216607  .00000221  00000+0  31960-4 0  9998
2 52472  53.2164 152.4453 0001142  63.3688 296.7422 15.08839708172954
STARLINK-3879           
1 52473U 22049Y   25171.66712819 -.00000058  00000+0  14467-4 0  9993
2 52473  53.2168 155.3864 0001253  84.1485 275.9650 15.08834017172697
STARLINK-3855           
1 52474U 22049Z   25172.20996399 -.00000154  00000+0  84104-5 0  9995
2 52474  53.2164 142.9558 0001655  92.1256 267.9926 15.08834387173077
STARLINK-3882           
1 52475U 22049AA  25172.34427026 -.00000022  00000+0  16703-4 0  9990
2 52475  53.2162 152.5659 0001044  79.2079 280.9031 15.08839977172954
STARLINK-3835           
1 52476U 22049AB  25171.63223049  .00000322  00000+0  38324-4 0  9996
2 52476  53.2167 145.7801 0001493  77.6437 282.4722 15.08830865174066
STARLINK-3860           
1 52477U 22049AC  25171.61652304  .00000523  00000+0  50948-4 0  9994
2 52477  53.2165 145.6107 0001515  74.1845 285.9314 15.08837892174065
STARLINK-3825           
1 52478U 22049AD  25171.65240470 -.00000670  00000+0 -24035-4 0  9999
2 52478  53.2158 155.4500 0001282  81.8878 278.2259 15.08842603173930
STARLINK-3878           
1 52479U 22049AE  25171.33684195 -.00000504  00000+0 -13596-4 0  9997
2 52479  53.2164 146.8671 0001358  83.0835 277.0312 15.08838664174022
STARLINK-3839           
1 52480U 22049AF  25171.64872242 -.00000786  00000+0 -31300-4 0  9990
2 52480  53.2164 155.4644 0001289  59.8824 300.2296 15.08842280172692
STARLINK-3813           
1 52482U 22049AH  25172.19060238 -.00000207  00000+0  51043-5 0  9991
2 52482  53.2166 143.0343 0001257  77.9937 282.1196 15.08839348173077
STARLINK-3875           
1 52483U 22049AJ  25172.33412840  .00000632  00000+0  57803-4 0  9998
2 52483  53.2164 142.3904 0001464  73.3612 286.7540 15.08848523173091
STARLINK-3887           
1 52484U 22049AK  25172.37368553 -.00000441  00000+0 -96029-5 0  9998
2 52484  53.2164 152.2106 0001350  84.3865 275.7281 15.08840851172963
STARLINK-3913           
1 52485U 22049AL  25172.19428132  .00000582  00000+0  54659-4 0  9995
2 52485  53.2163 143.0187 0001359  66.5367 293.5768 15.08841573173071
STARLINK-3918           
1 52486U 22049AM  25171.37272448 -.00000985  00000+0 -43786-4 0  9990
2 52486  53.2166 156.7034 0001426  71.8451 288.2697 15.08836173172650
STARLINK-3902           
1 52487U 22049AN  25172.20533720 -.00000258  00000+0  18979-5 0  9996
2 52487  53.2166 143.0731 0001253  88.5855 271.5280 15.08836318173076
STARLINK-3892           
1 52488U 22049AP  25171.36904129 -.00000781  00000+0 -30991-4 0  9997
2 52488  53.2156 156.7207 0000972  86.0309 274.0794 15.08824362172656
STARLINK-3923           
1 52489U 22049AQ  25171.24391933  .00000588  00000+0  55036-4 0  9998
2 52489  53.2161 157.2823 0001144  77.7762 282.3358 15.08838962172632
STARLINK-3914           
1 52490U 22049AR  25172.17956613  .00000798  00000+0  68226-4 0  9993
2 52490  53.2166 143.0852 0001504  90.4318 269.6846 15.08838020173077
STARLINK-3908           
1 52491U 22049AS  25172.31940467  .00000585  00000+0  54850-4 0  9992
2 52491  53.2165 142.4561 0001409  86.5898 273.5255 15.08847719173095
STARLINK-3916           
1 52492U 22049AT  25172.30468836 -.00000842  00000+0 -34840-4 0  9992
2 52492  53.2168 142.5224 0001091  84.4632 275.6484 15.08841392173094
STARLINK-3883           
1 52493U 22049AU  25172.18327073 -.00002447  00000+0 -13580-3 0  9996
2 52493  53.2162 143.0664 0001410  90.3583 269.7571 15.08814789173078
STARLINK-3857           
1 52494U 22049AV  25171.63124422  .00000576  00000+0  54294-4 0  9996
2 52494  53.2166 145.5441 0001349  82.9985 277.1161 15.08837986172832
STARLINK-3871           
1 52496U 22049AX  25171.13674254 -.00000747  00000+0 -28874-4 0  9993
2 52496  53.2165 142.7631 0001361  86.1946 273.9202 15.08841368172828
STARLINK-3884           
1 52497U 22049AY  25171.63860758  .00000096  00000+0  24104-4 0  9992
2 52497  53.2167 145.5126 0001353  87.6900 272.4247 15.08830070172830
STARLINK-3925           
1 52498U 22049AZ  25171.28256835 -.00000013  00000+0  17246-4 0  9998
2 52498  53.2170 137.1089 0001313  88.2779 271.8363 15.08833441172913
STARLINK-3894           
1 52499U 22049BA  25172.29733784  .00000458  00000+0  46875-4 0  9996
2 52499  53.2167 142.5549 0001436  93.6610 266.4546 15.08844261173096
STARLINK-3866           
1 52500U 22049BB  25171.27888704 -.00000232  00000+0  35344-5 0  9990
2 52500  53.2170 137.1249 0001629  73.0819 287.0352 15.08832494172916
STARLINK-3907           
1 52501U 22049BC  25172.20896132 -.00000211  00000+0  47976-5 0  9990
2 52501  53.2145 142.7409 0000853  83.7496 276.3593 15.08846663173086
STARLINK-3912           
1 52502U 22049BD  25171.34145243 -.00000328  00000+0 -25348-5 0  9994
2 52502  53.2172 136.8736 0001264  92.9023 267.2114 15.08833463172923
STARLINK-3861           
1 52503U 22049BE  25171.59535199 -.00000287  00000+0  29439-7 0  9995
2 52503  53.2167 135.5890 0001395  84.3476 275.7675 15.08833901173123
STARLINK-3952           
1 52534U 22051B   25171.86676611 -.00000177  00000+0  69463-5 0  9994
2 52534  53.2169 224.4909 0001112  84.6151 275.4968 15.08836202172654
STARLINK-3958           
1 52535U 22051C   25172.52548423  .00000621  00000+0  57089-4 0  9991
2 52535  53.2164 221.5319 0000995  82.5726 277.5380 15.08839270172082
STARLINK-3964           
1 52536U 22051D   25171.85940709  .00000220  00000+0  31915-4 0  9995
2 52536  53.2164 224.5221 0000838  75.6153 284.4932 15.08836188171917
STARLINK-3897           
1 52537U 22051E   25171.43986244  .00000331  00000+0  38890-4 0  9996
2 52537  53.2162 226.2126 0001189  92.9992 267.1136 15.08833421171856
STARLINK-3933           
1 52538U 22051F   25172.51073242  .00003598  00000+0  24386-3 0  9994
2 52538  53.2155 221.5974 0000109  62.2646 297.8358 15.08863472172086
STARLINK-3757           
1 52539U 22051G   25172.51444416 -.00003322  00000+0 -19068-3 0  9998
2 52539  53.2153 221.5797 0001304  92.5701 267.5440 15.08843789172089
STARLINK-3940           
1 52540U 22051H   25171.44357189 -.00000864  00000+0 -36246-4 0  9997
2 52540  53.2161 226.4261 0001092  84.1482 275.9635 15.08833698171858
STARLINK-3845           
1 52541U 22051J   25171.87184777  .00000283  00000+0  35862-4 0  9992
2 52541  53.2169 229.4726 0001092 109.6268 250.4842 15.08829011171842
